STARLINK-32625          
1 62154U 24224R   26068.27842535  .00036351  00000+0  13231-2 0  9999
2 62154  42.9968 160.7214 0001114 290.1455  69.9277 15.27602483 72302
KUIPER-00209            
1 67776U 26030N   26068.61786546  .00035298  00000+0  11963-2 0  9997
2 67776  51.8838 220.0775 0012191  59.1967 301.0215 15.30161950  5077
